CTC2_L_00043016-03
1 83476U 24180RY  26037.47790509  .00000000  00000+0  00000-0 0  9991
2 83476  95.0000 180.0000 0000000   0.0000   0.0000 15.59189987    16
CTC2_L_00043016-04
1 83477U 24064VZ  26037.47790509  .00000000  00000+0  00000-0 0  9993
2 83477  95.0000 180.0000 0000000   0.0000  90.0000 15.59189987    16
CTC2_L_00043017-01
1 83478U 25373NB  26037.47790509  .00000000  00000+0  00000-0 0  9998
2 83478  95.0000 192.0000 0000000   0.0000 192.0000 15.59189987    13
CTC2_L_00043017-02
1 83479U 25097XX  26037.47790509  .00000000  00000+0  00000-0 0  9992
2 83479  95.0000 192.0000 0000000   0.0000 282.0000 15.59189987    14
CTC2_L_00043017-03
1 83480U 25682RX  26037.47790509  .00000000  00000+0  00000-0 0  9994
2 83480  95.0000 192.0000 0000000   0.0000  12.0000 15.59189987    17
CTC2_L_00043017-04
1 83481U 22786IZ  26037.47790509  .00000000  00000+0  00000-0 0  9997
2 83481  95.0000 192.0000 0000000   0.0000 102.0000 15.59189987    18
CTC2_L_00043018-01
1 83482U 22203FC  26037.47790509  .00000000  00000+0  00000-0 0  9992
2 83482  95.0000 204.0000 0000000   0.0000 204.0000 15.59189987    16
CTC2_L_00043018-02
1 83483U 25153SD  26037.47790509  .00000000  00000+0  00000-0 0  9990
2 83483  95.0000 204.0000 0000000   0.0000 294.0000 15.59189987    16
CTC2_L_00043018-03
1 83484U 26443HH  26037.47790509  .00000000  00000+0  00000-0 0  9994
2 83484  95.0000 204.0000 0000000   0.0000  24.0000 15.59189987    18
CTC2_L_00043018-04
1 83485U 22844WM  26037.47790509  .00000000  00000+0  00000-0 0  9996
2 83485  95.0000 204.0000 0000000   0.0000 114.0000 15.59189987    19
CTC2_L_00043019-01
1 83486U 22396LY  26037.47790509  .00000000  00000+0  00000-0 0  9999
2 83486  95.0000 216.0000 0000000   0.0000 216.0000 15.59189987    16
CTC2_L_00043019-02
1 83487U 26703GI  26037.47790509  .00000000  00000+0  00000-0 0  9996
2 83487  95.0000 216.0000 0000000   0.0000 306.0000 15.59189987    17
CTC2_L_00043019-03
1 83488U 22660JL  26037.47790509  .00000000  00000+0  00000-0 0  9995
2 83488  95.0000 216.0000 0000000   0.0000  36.0000 15.59189987    18
CTC2_L_00043019-04
1 83489U 23060MB  26037.47790509  .00000000  00000+0  00000-0 0  9991
2 83489  95.0000 216.0000 0000000   0.0000 126.0000 15.59189987    19
CTC2_L_00043020-01
1 83490U 26130OT  26037.47790509  .00000000  00000+0  00000-0 0  9994
2 83490  95.0000 228.0000 0000000   0.0000 228.0000 15.59189987    17
CTC2_L_00043020-02
1 83491U 24371DI  26037.47790509  .00000000  00000+0  00000-0 0  9990
2 83491  95.0000 228.0000 0000000   0.0000 318.0000 15.59189987    18
CTC2_L_00043020-03
1 83492U 24352HV  26037.47790509  .00000000  00000+0  00000-0 0  9990
2 83492  95.0000 228.0000 0000000   0.0000  48.0000 15.59189987    19
CTC2_L_00043020-04
1 83493U 25908SI  26037.47790509  .00000000  00000+0  00000-0 0  9999
2 83493  95.0000 228.0000 0000000   0.0000 138.0000 15.59189987    10
CTC2_L_00043021-01
1 83494U 23230JV  26037.47790509  .00000000  00000+0  00000-0 0  9996
2 83494  95.0000 240.0000 0000000   0.0000 240.0000 15.59189987    19
CTC2_L_00043021-02
1 83495U 23829OJ  26037.47790509  .00000000  00000+0  00000-0 0  9991
2 83495  95.0000 240.0000 0000000   0.0000 330.0000 15.59189987    10
CTC2_L_00043021-03
1 83496U 26986VT  26037.47790509  .00000000  00000+0  00000-0 0  9999
2 83496  95.0000 240.0000 0000000   0.0000  60.0000 15.59189987    11
CTC2_L_00043021-04
1 83497U 22831HP  26037.47790509  .00000000  00000+0  00000-0 0  9995
2 83497  95.0000 240.0000 0000000   0.0000 150.0000 15.59189987    12
CTC2_L_00043022-01
1 83498U 25210QD  26037.47790509  .00000000  00000+0  00000-0 0  9990
2 83498  95.0000 252.0000 0000000   0.0000 252.0000 15.59189987    19
CTC2_L_00043022-02
1 83499U 26329NG  26037.47790509  .00000000  00000+0  00000-0 0  9993
2 83499  95.0000 252.0000 0000000   0.0000 342.0000 15.59189987    10
CTC2_L_00043022-03
1 83500U 22707RR  26037.47790509  .00000000  00000+0  00000-0 0  9992
2 83500  95.0000 252.0000 0000000   0.0000  72.0000 15.59189987    13
CTC2_L_00043022-04
1 83501U 26035EP  26037.47790509  .00000000  00000+0  00000-0 0  9991
2 83501  95.0000 252.0000 0000000   0.0000 162.0000 15.59189987    14
CTC2_L_00043023-01
1 83502U 24542YN  26037.47790509  .00000000  00000+0  00000-0 0  9993
2 83502  95.0000 264.0000 0000000   0.0000 264.0000 15.59189987    11
CTC2_L_00043023-02
1 83503U 26380NA  26037.47790509  .00000000  00000+0  00000-0 0  9996
2 83503  95.0000 264.0000 0000000   0.0000 354.0000 15.59189987    12
CTC2_L_00043023-03
1 83504U 22694TQ  26037.47790509  .00000000  00000+0  00000-0 0  9991
2 83504  95.0000 264.0000 0000000   0.0000  84.0000 15.59189987    13
CTC2_L_00043023-04
1 83505U 23015DV  26037.47790509  .00000000  00000+0  00000-0 0  9990
2 83505  95.0000 264.0000 0000000   0.0000 174.0000 15.59189987    14
CTC2_L_00043024-01
1 83506U 23382KB  26037.47790509  .00000000  00000+0  00000-0 0  9998
2 83506  95.0000 276.0000 0000000   0.0000 276.0000 15.59189987    11
CTC2_L_00043024-02
1 83507U 24892TV  26037.47790509  .00000000  00000+0  00000-0 0  9996
2 83507  95.0000 276.0000 0000000   0.0000   6.0000 15.59189987    13
CTC2_L_00043024-03
1 83508U 22525MS  26037.47790509  .00000000  00000+0  00000-0 0  9998
2 83508  95.0000 276.0000 0000000   0.0000  96.0000 15.59189987    13
CTC2_L_00043024-04
1 83509U 26145HS  26037.47790509  .00000000  00000+0  00000-0 0  9991
2 83509  95.0000 276.0000 0000000   0.0000 186.0000 15.59189987    14
CTC2_L_00043025-01
1 83510U 23032TN  26037.47790509  .00000000  00000+0  00000-0 0  9995
2 83510  95.0000 288.0000 0000000   0.0000 288.0000 15.59189987    12
CTC2_L_00043025-02
1 83511U 23406MR  26037.47790509  .00000000  00000+0  00000-0 0  9991
2 83511  95.0000 288.0000 0000000   0.0000  18.0000 15.59189987    14
CTC2_L_00043025-03
1 83512U 25659ZX  26037.47790509  .00000000  00000+0  00000-0 0  9994
2 83512  95.0000 288.0000 0000000   0.0000 108.0000 15.59189987    15
CTC2_L_00043025-04
1 83513U 22624AU  26037.47790509  .00000000  00000+0  00000-0 0  9994
2 83513  95.0000 288.0000 0000000   0.0000 198.0000 15.59189987    15
CTC2_L_00043026-01
1 83514U 23650OU  26037.47790509  .00000000  00000+0  00000-0 0  9995
2 83514  95.0000 300.0000 0000000   0.0000 300.0000 15.59189987    16
CTC2_L_00043026-02
1 83515U 26648IM  26037.47790509  .00000000  00000+0  00000-0 0  9996
2 83515  95.0000 300.0000 0000000   0.0000  30.0000 15.59189987    17
CTC2_L_00043026-03
1 83516U 22757NJ  26037.47790509  .00000000  00000+0  00000-0 0  9994
2 83516  95.0000 300.0000 0000000   0.0000 120.0000 15.59189987    18
CTC2_L_00043026-04
1 83517U 22777EF  26037.47790509  .00000000  00000+0  00000-0 0  9997
2 83517  95.0000 300.0000 0000000   0.0000 210.0000 15.59189987    19
CTC2_L_00043027-01
1 83518U 23002K   26037.47790509  .00000000  00000+0  00000-0 0  9990
2 83518  95.0000 312.0000 0000000   0.0000 312.0000 15.59189987    16
CTC2_L_00043027-02
1 83519U 25146ZL  26037.47790509  .00000000  00000+0  00000-0 0  9992
2 83519  95.0000 312.0000 0000000   0.0000  42.0000 15.59189987    17
CTC2_L_00043027-03
1 83520U 22841UV  26037.47790509  .00000000  00000+0  00000-0 0  9993
2 83520  95.0000 312.0000 0000000   0.0000 132.0000 15.59189987    19
CTC2_L_00043027-04
1 83521U 22200GX  26037.47790509  .00000000  00000+0  00000-0 0  9993
2 83521  95.0000 312.0000 0000000   0.0000 222.0000 15.59189987    10
CTC2_L_00043028-01
1 83522U 26532AW  26037.47790509  .00000000  00000+0  00000-0 0  9996
2 83522  95.0000 324.0000 0000000   0.0000 324.0000 15.59189987    17
CTC2_L_00043028-02
1 83523U 24761TI  26037.47790509  .00000000  00000+0  00000-0 0  9999
2 83523  95.0000 324.0000 0000000   0.0000  54.0000 15.59189987    18
CTC2_L_00043028-03
1 83524U 25577XN  26037.47790509  .00000000  00000+0  00000-0 0  9996
2 83524  95.0000 324.0000 0000000   0.0000 144.0000 15.59189987    19
CTC2_L_00043028-04
1 83525U 25398QL  26037.47790509  .00000000  00000+0  00000-0 0  9998
2 83525  95.0000 324.0000 0000000   0.0000 234.0000 15.59189987    10
CTC2_L_00043029-01
1 83526U 26530BY  26037.47790509  .00000000  00000+0  00000-0 0  9998
2 83526  95.0000 336.0000 0000000   0.0000 336.0000 15.59189987    17
CTC2_L_00043029-02
1 83527U 24710AY  26037.47790509  .00000000  00000+0  00000-0 0  9997
2 83527  95.0000 336.0000 0000000   0.0000  66.0000 15.59189987    18
CTC2_L_00043029-03
1 83528U 26039FE  26037.47790509  .00000000  00000+0  00000-0 0  9994
2 83528  95.0000 336.0000 0000000   0.0000 156.0000 15.59189987    19
CTC2_L_00043029-04
1 83529U 22390TF  26037.47790509  .00000000  00000+0  00000-0 0  9991
2 83529  95.0000 336.0000 0000000   0.0000 246.0000 15.59189987    10
CTC2_L_00043030-01
1 83530U 23119YF  26037.47790509  .00000000  00000+0  00000-0 0  9993
2 83530  95.0000 348.0000 0000000   0.0000 348.0000 15.59189987    18
CTC2_L_00043030-02
1 83531U 25895DY  26037.47790509  .00000000  00000+0  00000-0 0  9997
2 83531  95.0000 348.0000 0000000   0.0000  78.0000 15.59189987    19
CTC2_L_00043030-03
1 83532U 24619YG  26037.47790509  .00000000  00000+0  00000-0 0  9991
2 83532  95.0000 348.0000 0000000   0.0000 168.0000 15.59189987    10
CTC2_L_00043030-04
1 83533U 25129BM  26037.47790509  .00000000  00000+0  00000-0 0  9999
2 83533  95.0000 348.0000 0000000   0.0000 258.0000 15.59189987    11
